CCSDS_OMM_VERS = 2.0
CREATION_DATE  = 
ORIGINATOR     = 

OBJECT_NAME    = STARLINK-35476
OBJECT_ID      = 2025-280E
CENTER_NAME    = EARTH
REF_FRAME      = TEME
TIME_SYSTEM    = UTC
MEAN_ELEMENT_THEORY = SGP/SGP4

EPOCH          = 2025-12-10T18:00:02.000160
MEAN_MOTION    = 15.87054454
ECCENTRICITY   = .0003729
INCLINATION    = 69.9936
RA_OF_ASC_NODE = 204.5418
ARG_OF_PERICENTER = 270.4103
MEAN_ANOMALY   = 282.4783

EPHEMERIS_TYPE = 0
CLASSIFICATION_TYPE = U
NORAD_CAT_ID   = 66825
ELEMENT_SET_NO = 999
REV_AT_EPOCH   = 243
BSTAR          = -.70194E-2
MEAN_MOTION_DOT = -.160143E-1
MEAN_MOTION_DDOT = 0

CCSDS_OMM_VERS = 2.0
CREATION_DATE  = 
ORIGINATOR     = 

OBJECT_NAME    = STARLINK-35898
OBJECT_ID      = 2025-280F
CENTER_NAME    = EARTH
REF_FRAME      = TEME
TIME_SYSTEM    = UTC
MEAN_ELEMENT_THEORY = SGP/SGP4

EPOCH          = 2025-12-10T18:00:02.000160
MEAN_MOTION    = 15.87096157
ECCENTRICITY   = .0003795
INCLINATION    = 69.9935
RA_OF_ASC_NODE = 204.5397
ARG_OF_PERICENTER = 269.5275
MEAN_ANOMALY   = 284.9348

EPHEMERIS_TYPE = 0
CLASSIFICATION_TYPE = U
NORAD_CAT_ID   = 66826
ELEMENT_SET_NO = 999
REV_AT_EPOCH   = 258
BSTAR          = -.7008E-2
MEAN_MOTION_DOT = -.1602116E-1
MEAN_MOTION_DDOT = 0

CCSDS_OMM_VERS = 2.0
CREATION_DATE  = 
ORIGINATOR     = 

OBJECT_NAME    = STARLINK-35959
OBJECT_ID      = 2025-280G
CENTER_NAME    = EARTH
REF_FRAME      = TEME
TIME_SYSTEM    = UTC
MEAN_ELEMENT_THEORY = SGP/SGP4

EPOCH          = 2025-12-10T18:00:02.000160
MEAN_MOTION    = 15.87138781
ECCENTRICITY   = .0003795
INCLINATION    = 69.9933
RA_OF_ASC_NODE = 204.5376
ARG_OF_PERICENTER = 269.3010
MEAN_ANOMALY   = 287.0125

EPHEMERIS_TYPE = 0
CLASSIFICATION_TYPE = U
NORAD_CAT_ID   = 66827
ELEMENT_SET_NO = 999
REV_AT_EPOCH   = 258
BSTAR          = -.70318E-2
MEAN_MOTION_DOT = -.1609866E-1
MEAN_MOTION_DDOT = 0

CCSDS_OMM_VERS = 2.0
CREATION_DATE  = 
ORIGINATOR     = 

OBJECT_NAME    = STARLINK-35982
OBJECT_ID      = 2025-280H
CENTER_NAME    = EARTH
REF_FRAME      = TEME
TIME_SYSTEM    = UTC
MEAN_ELEMENT_THEORY = SGP/SGP4

EPOCH          = 2025-12-10T18:00:02.000160
MEAN_MOTION    = 15.87215168
ECCENTRICITY   = .0003751
INCLINATION    = 69.9934
RA_OF_ASC_NODE = 204.5330
ARG_OF_PERICENTER = 270.7247
MEAN_ANOMALY   = 289.5054

EPHEMERIS_TYPE = 0
CLASSIFICATION_TYPE = U
NORAD_CAT_ID   = 66828
ELEMENT_SET_NO = 999
REV_AT_EPOCH   = 258
BSTAR          = -.70591E-2
MEAN_MOTION_DOT = -.1620676E-1
MEAN_MOTION_DDOT = 0

CCSDS_OMM_VERS = 2.0
CREATION_DATE  = 
ORIGINATOR     = 

OBJECT_NAME    = STARLINK-36084
OBJECT_ID      = 2025-280J
CENTER_NAME    = EARTH
REF_FRAME      = TEME
TIME_SYSTEM    = UTC
MEAN_ELEMENT_THEORY = SGP/SGP4

EPOCH          = 2025-12-10T18:00:02.000160
MEAN_MOTION    = 15.87176966
ECCENTRICITY   = .000381
INCLINATION    = 69.9933
RA_OF_ASC_NODE = 204.5351
ARG_OF_PERICENTER = 271.3474
MEAN_ANOMALY   = 286.9189

EPHEMERIS_TYPE = 0
CLASSIFICATION_TYPE = U
NORAD_CAT_ID   = 66829
ELEMENT_SET_NO = 999
REV_AT_EPOCH   = 242
BSTAR          = -.70441E-2
MEAN_MOTION_DOT = -.161503E-1
MEAN_MOTION_DDOT = 0

CCSDS_OMM_VERS = 2.0
CREATION_DATE  = 
ORIGINATOR     = 

OBJECT_NAME    = STARLINK-35881
OBJECT_ID      = 2025-280K
CENTER_NAME    = EARTH
REF_FRAME      = TEME
TIME_SYSTEM    = UTC
MEAN_ELEMENT_THEORY = SGP/SGP4

EPOCH          = 2025-12-10T18:00:02.000160
MEAN_MOTION    = 15.87264190
ECCENTRICITY   = .0003676
INCLINATION    = 69.9930
RA_OF_ASC_NODE = 204.5307
ARG_OF_PERICENTER = 269.9668
MEAN_ANOMALY   = 291.7888

EPHEMERIS_TYPE = 0
CLASSIFICATION_TYPE = U
NORAD_CAT_ID   = 66830
ELEMENT_SET_NO = 999
REV_AT_EPOCH   = 258
BSTAR          = -.70807E-2
MEAN_MOTION_DOT = -.1628378E-1
MEAN_MOTION_DDOT = 0

CCSDS_OMM_VERS = 2.0
CREATION_DATE  = 
ORIGINATOR     = 

OBJECT_NAME    = STARLINK-35788
OBJECT_ID      = 2025-280L
CENTER_NAME    = EARTH
REF_FRAME      = TEME
TIME_SYSTEM    = UTC
MEAN_ELEMENT_THEORY = SGP/SGP4

EPOCH          = 2025-12-10T18:00:02.000160
MEAN_MOTION    = 15.87306963
ECCENTRICITY   = .0003769
INCLINATION    = 69.9937
RA_OF_ASC_NODE = 204.5293
ARG_OF_PERICENTER = 268.9515
MEAN_ANOMALY   = 294.3620

EPHEMERIS_TYPE = 0
CLASSIFICATION_TYPE = U
NORAD_CAT_ID   = 66831
ELEMENT_SET_NO = 999
REV_AT_EPOCH   = 258
BSTAR          = -.7078E-2
MEAN_MOTION_DOT = -.1630974E-1
MEAN_MOTION_DDOT = 0

CCSDS_OMM_VERS = 2.0
CREATION_DATE  = 
ORIGINATOR     = 

OBJECT_NAME    = STARLINK-35768
OBJECT_ID      = 2025-280M
CENTER_NAME    = EARTH
REF_FRAME      = TEME
TIME_SYSTEM    = UTC
MEAN_ELEMENT_THEORY = SGP/SGP4

EPOCH          = 2025-12-10T18:00:02.000160
MEAN_MOTION    = 15.87348269
ECCENTRICITY   = .0003748
INCLINATION    = 69.9933
RA_OF_ASC_NODE = 204.5270
ARG_OF_PERICENTER = 270.0502
MEAN_ANOMALY   = 294.7800

EPHEMERIS_TYPE = 0
CLASSIFICATION_TYPE = U
NORAD_CAT_ID   = 66832
ELEMENT_SET_NO = 999
REV_AT_EPOCH   = 258
BSTAR          = -.70597E-2
MEAN_MOTION_DOT = -.1630187E-1
MEAN_MOTION_DDOT = 0

CCSDS_OMM_VERS = 2.0
CREATION_DATE  = 
ORIGINATOR     = 

OBJECT_NAME    = STARLINK-35858
OBJECT_ID      = 2025-280N
CENTER_NAME    = EARTH
REF_FRAME      = TEME
TIME_SYSTEM    = UTC
MEAN_ELEMENT_THEORY = SGP/SGP4

EPOCH          = 2025-12-10T18:00:02.000160
MEAN_MOTION    = 15.87387192
ECCENTRICITY   = .0003729
INCLINATION    = 69.9935
RA_OF_ASC_NODE = 204.5250
ARG_OF_PERICENTER = 270.7614
MEAN_ANOMALY   = 296.0612

EPHEMERIS_TYPE = 0
CLASSIFICATION_TYPE = U
NORAD_CAT_ID   = 66833
ELEMENT_SET_NO = 999
REV_AT_EPOCH   = 258
BSTAR          = -.70772E-2
MEAN_MOTION_DOT = -.1636461E-1
MEAN_MOTION_DDOT = 0

CCSDS_OMM_VERS = 2.0
CREATION_DATE  = 
ORIGINATOR     = 

OBJECT_NAME    = STARLINK-35840
OBJECT_ID      = 2025-280P
CENTER_NAME    = EARTH
REF_FRAME      = TEME
TIME_SYSTEM    = UTC
MEAN_ELEMENT_THEORY = SGP/SGP4

EPOCH          = 2025-12-10T18:00:02.000160
MEAN_MOTION    = 15.87432671
ECCENTRICITY   = .0003772
INCLINATION    = 69.9932
RA_OF_ASC_NODE = 204.5228
ARG_OF_PERICENTER = 270.3164
MEAN_ANOMALY   = 298.0805

EPHEMERIS_TYPE = 0
CLASSIFICATION_TYPE = U
NORAD_CAT_ID   = 66834
ELEMENT_SET_NO = 999
REV_AT_EPOCH   = 258
BSTAR          = -.70856E-2
MEAN_MOTION_DOT = -.1641469E-1
MEAN_MOTION_DDOT = 0

CCSDS_OMM_VERS = 2.0
CREATION_DATE  = 
ORIGINATOR     = 

OBJECT_NAME    = STARLINK-35890
OBJECT_ID      = 2025-280Q
CENTER_NAME    = EARTH
REF_FRAME      = TEME
TIME_SYSTEM    = UTC
MEAN_ELEMENT_THEORY = SGP/SGP4

EPOCH          = 2025-12-10T18:00:02.000160
MEAN_MOTION    = 15.87476114
ECCENTRICITY   = .0003721
INCLINATION    = 69.9930
RA_OF_ASC_NODE = 204.5206
ARG_OF_PERICENTER = 269.9277
MEAN_ANOMALY   = 300.2566

EPHEMERIS_TYPE = 0
CLASSIFICATION_TYPE = U
NORAD_CAT_ID   = 66835
ELEMENT_SET_NO = 999
REV_AT_EPOCH   = 258
BSTAR          = -.71042E-2
MEAN_MOTION_DOT = -.1648284E-1
MEAN_MOTION_DDOT = 0

CCSDS_OMM_VERS = 2.0
CREATION_DATE  = 
ORIGINATOR     = 

OBJECT_NAME    = STARLINK-35838
OBJECT_ID      = 2025-280R
CENTER_NAME    = EARTH
REF_FRAME      = TEME
TIME_SYSTEM    = UTC
MEAN_ELEMENT_THEORY = SGP/SGP4

EPOCH          = 2025-12-10T18:00:02.000160
MEAN_MOTION    = 15.87519795
ECCENTRICITY   = .000371
INCLINATION    = 69.9928
RA_OF_ASC_NODE = 204.5182
ARG_OF_PERICENTER = 269.3013
MEAN_ANOMALY   = 302.7614

EPHEMERIS_TYPE = 0
CLASSIFICATION_TYPE = U
NORAD_CAT_ID   = 66836
ELEMENT_SET_NO = 999
REV_AT_EPOCH   = 258
BSTAR          = -.71306E-2
MEAN_MOTION_DOT = -.1656757E-1
MEAN_MOTION_DDOT = 0

